NORAD_CAT_ID,OBJECT_NAME,OBJECT_TYPE,EPOCH,MEAN_MOTION,ECCENTRICITY,INCLINATION,RA_OF_ASC_NODE,ARG_OF_PERICENTER,MEAN_ANOMALY,BSTAR,MEAN_MOTION_DOT,MEAN_MOTION_DDOT,TLE_LINE0,TLE_LINE1,TLE_LINE2,SEMIMAJOR_AXIS,PERIOD,APOGEE,PERIGEE,DECAYED
51803.0,STARLINK-3544,PAYLOAD,2023-12-24 06:26:37,15.08851771,0.0001159,53.2174,9.2898,85.717,274.3955,0.00053922,8.307e-05,0.0,0 STARLINK-3544,1 51803U 22017AM  23358.26849364  .00008307  00000-0  53922-3 0  9994,2 51803  53.2174   9.2898 0001159  85.7170 274.3955 15.08851771102170,6917.844,95.437,540.511,538.908,0.0
51803.0,STARLINK-3544,PAYLOAD,2023-12-25 11:03:34,15.0884514,0.0001785,53.2169,3.934,120.6922,239.4247,0.00085465,0.00013342,0.0,0 STARLINK-3544,1 51803U 22017AM  23359.46081358  .00013342  00000-0  85465-3 0  9990,2 51803  53.2169   3.9340 0001785 120.6922 239.4247 15.08845140102355,6917.865,95.437,540.965,538.495,0.0
51803.0,STARLINK-3544,PAYLOAD,2023-12-25 22:11:16,15.08837673,0.0002603,53.2166,1.85,139.4604,220.6583,0.0002527,3.735e-05,0.0,0 STARLINK-3544,1 51803U 22017AM  23359.92449427  .00003735  00000-0  25270-3 0  9999,2 51803  53.2166   1.8500 0002603 139.4604 220.6583 15.08837673102427,6917.888,95.438,541.553,537.952,0.0
51803.0,STARLINK-3544,PAYLOAD,2023-12-26 07:43:35,15.08834515,0.0001389,53.2166,0.0632,95.2574,264.8576,0.00019545,2.824e-05,0.0,0 STARLINK-3544,1 51803U 22017AM  23360.32194207  .00002824  00000-0  19545-3 0  9994,2 51803  53.2166   0.0632 0001389  95.2574 264.8576 15.08834515102489,6917.897,95.438,540.723,538.801,0.0
51803.0,STARLINK-3544,PAYLOAD,2023-12-27 09:09:45,15.08855831,0.0001573,53.2167,355.3119,94.4104,265.7068,0.00062572,9.689e-05,0.0,0 STARLINK-3544,1 51803U 22017AM  23361.38177807  .00009689  00000-0  62572-3 0  9992,2 51803  53.2167 355.3119 0001573  94.4104 265.7068 15.08855831102649,6917.832,95.437,540.785,538.609,0.0
51803.0,STARLINK-3544,PAYLOAD,2023-12-28 04:14:23,15.0884552,0.0002188,53.2172,351.7404,118.588,241.5332,0.00033361,5.026e-05,0.0,0 STARLINK-3544,1 51803U 22017AM  23362.17665738  .00005026  00000-0  33361-3 0  9990,2 51803  53.2172 351.7404 0002188 118.5880 241.5332 15.08845520102767,6917.864,95.437,541.242,538.215,0.0
51803.0,STARLINK-3544,PAYLOAD,2023-12-28 09:00:32,15.08843614,0.000178,53.2177,350.8461,100.0366,260.0827,0.0002739,4.074e-05,0.0,0 STARLINK-3544,1 51803U 22017AM  23362.37537758  .00004074  00000-0  27390-3 0  9999,2 51803  53.2177 350.8461 0001780 100.0366 260.0827 15.08843614102797,6917.869,95.437,540.966,538.503,0.0
51803.0,STARLINK-3544,PAYLOAD,2023-12-29 04:05:12,15.08801982,0.0002076,53.218,347.2755,96.593,263.5298,0.0014936,0.00023538,0.0,0 STARLINK-3544,1 51803U 22017AM  23363.17028701  .00023538  00000-0  14936-2 0  9998,2 51803  53.2180 347.2755 0002076  96.5930 263.5298 15.08801982102918,6917.997,95.44,541.298,538.425,0.0
51803.0,STARLINK-3544,PAYLOAD,2023-12-29 08:51:23,15.08786421,0.0002166,53.2187,346.3861,100.6217,259.5019,0.0015555,0.00024518,0.0,0 STARLINK-3544,1 51803U 22017AM  23363.36901897  .00024518  00000-0  15555-2 0  9992,2 51803  53.2187 346.3861 0002166 100.6217 259.5019 15.08786421102947,6918.044,95.441,541.408,538.411,0.0
51803.0,STARLINK-3544,PAYLOAD,2023-12-30 03:55:57,15.08846803,0.0001775,53.2189,342.8172,113.4247,246.6932,0.0002182,3.187e-05,0.0,0 STARLINK-3544,1 51803U 22017AM  23364.16385961  .00003187  00000-0  21820-3 0  9991,2 51803  53.2189 342.8172 0001775 113.4247 246.6932 15.08846803103061,6917.86,95.437,540.953,538.497,0.0
51803.0,STARLINK-3544,PAYLOAD,2023-12-30 05:31:20,15.08847871,0.0001744,53.2188,342.5198,111.5288,248.589,0.00023074,3.387e-05,0.0,0 STARLINK-3544,1 51803U 22017AM  23364.23009924  .00003387  00000-0  23074-3 0  9996,2 51803  53.2188 342.5198 0001744 111.5288 248.5890 15.08847871103076,6917.856,95.437,540.928,538.515,0.0
51803.0,STARLINK-3544,PAYLOAD,2023-12-30 23:00:35,15.08838693,0.0001592,53.2176,339.2518,101.8988,258.2182,6.6198e-06,-1.83e-06,0.0,0 STARLINK-3544,1 51803U 22017AM  23364.95874503 -.00000183  00000-0  66198-5 0  9996,2 51803  53.2176 339.2518 0001592 101.8988 258.2182 15.08838693103188,6917.884,95.438,540.851,538.648,0.0
51803.0,STARLINK-3544,PAYLOAD,2023-12-31 03:46:44,15.08840762,0.0001851,53.2182,338.3602,124.6312,235.4854,6.7209e-05,7.82e-06,0.0,0 STARLINK-3544,1 51803U 22017AM  23365.15746232  .00000782  00000-0  67209-4 0  9993,2 51803  53.2182 338.3602 0001851 124.6312 235.4854 15.08840762103218,6917.878,95.438,541.024,538.463,0.0
51803.0,STARLINK-3544,PAYLOAD,2023-12-31 08:32:54,15.08841243,0.0001417,53.2181,337.4687,104.1215,255.9935,8.4141e-05,1.051e-05,0.0,0 STARLINK-3544,1 51803U 22017AM  23365.35618353  .00001051  00000-0  84141-4 0  9991,2 51803  53.2181 337.4687 0001417 104.1215 255.9935 15.08841243103248,6917.877,95.437,540.722,538.761,0.0
51803.0,STARLINK-3544,PAYLOAD,2024-01-01 03:37:32,15.08837273,0.0001389,53.219,333.8997,87.8499,272.2652,-3.7958e-07,-2.94e-06,0.0,0 STARLINK-3544,1 51803U 22017AM  24001.15107137 -.00000294  00000-0 -37958-6 0  9996,2 51803  53.2190 333.8997 0001389  87.8499 272.2652 15.08837273103360,6917.889,95.438,540.715,538.793,0.0
51803.0,STARLINK-3544,PAYLOAD,2024-01-02 03:28:18,15.08850325,0.0001337,53.2183,329.438,99.9797,260.1346,0.00018954,2.731e-05,0.0,0 STARLINK-3544,1 51803U 22017AM  24002.14465994  .00002731  00000-0  18954-3 0  9992,2 51803  53.2183 329.4380 0001337  99.9797 260.1346 15.08850325103513,6917.849,95.437,540.639,538.789,0.0
51803.0,STARLINK-3544,PAYLOAD,2024-01-02 06:39:04,15.08856855,0.0001463,53.2178,328.8432,99.2386,260.8772,0.00028605,4.27e-05,0.0,0 STARLINK-3544,1 51803U 22017AM  24002.27713801  .00004270  00000-0  28605-3 0  9993,2 51803  53.2178 328.8432 0001463  99.2386 260.8772 15.08856855103531,6917.829,95.436,540.706,538.682,0.0
51803.0,STARLINK-3544,PAYLOAD,2024-01-03 03:19:06,15.08844327,0.000141,53.2169,324.9841,86.1664,273.9489,0.00014376,2.001e-05,0.0,0 STARLINK-3544,1 51803U 22017AM  24003.13826564  .00002001  00000-0  14376-3 0  9990,2 51803  53.2169 324.9841 0001410  86.1664 273.9489 15.08844327103663,6917.867,95.437,540.708,538.757,0.0
51803.0,STARLINK-3544,PAYLOAD,2024-01-03 06:29:52,15.08849352,0.0001486,53.2172,324.3839,92.465,267.6512,0.00022801,3.344e-05,0.0,0 STARLINK-3544,1 51803U 22017AM  24003.27074264  .00003344  00000-0  22801-3 0  9990,2 51803  53.2172 324.3839 0001486  92.4650 267.6512 15.08849352103688,6917.852,95.437,540.745,538.689,0.0
51803.0,STARLINK-3544,PAYLOAD,2024-01-04 04:45:16,15.08845949,0.0001597,53.2173,320.2191,96.264,263.8534,0.00014371,2e-05,0.0,0 STARLINK-3544,1 51803U 22017AM  24004.19810351  .00002000  00000-0  14371-3 0  9998,2 51803  53.2173 320.2191 0001597  96.2640 263.8534 15.08845949103825,6917.862,95.437,540.832,538.622,0.0
51803.0,STARLINK-3544,PAYLOAD,2024-01-05 03:00:40,15.08846631,0.0001562,53.2162,316.0619,99.5323,260.5846,0.00025268,3.736e-05,0.0,0 STARLINK-3544,1 51803U 22017AM  24005.12546640  .00003736  00000-0  25268-3 0  9993,2 51803  53.2162 316.0619 0001562  99.5323 260.5846 15.08846631103961,6917.86,95.437,540.806,538.645,0.0
51803.0,STARLINK-3544,PAYLOAD,2024-01-05 06:11:26,15.08849985,0.0001639,53.2168,315.4644,91.6156,268.5024,0.0003301,4.971e-05,0.0,0 STARLINK-3544,1 51803U 22017AM  24005.25794590  .00004971  00000-0  33010-3 0  9992,2 51803  53.2168 315.4644 0001639  91.6156 268.5024 15.08849985103983,6917.85,95.437,540.849,538.581,0.0
51803.0,STARLINK-3544,PAYLOAD,2024-01-06 02:51:27,15.0884662,0.0001672,53.2189,311.5892,102.9151,257.2028,0.00019398,2.801e-05,0.0,0 STARLINK-3544,1 51803U 22017AM  24006.11906598  .00002801  00000-0  19398-3 0  9994,2 51803  53.2189 311.5892 0001672 102.9151 257.2028 15.08846620104114,6917.86,95.437,540.882,538.568,0.0
51803.0,STARLINK-3544,PAYLOAD,2024-01-06 06:02:13,15.08846451,0.0001524,53.2165,311.0032,111.6919,248.4235,0.00023277,3.419e-05,0.0,0 STARLINK-3544,1 51803U 22017AM  24006.25154649  .00003419  00000-0  23277-3 0  9998,2 51803  53.2165 311.0032 0001524 111.6919 248.4235 15.08846451104130,6917.861,95.437,540.78,538.671,0.0
51803.0,STARLINK-3544,PAYLOAD,2024-01-07 02:42:14,15.08842217,0.0001595,53.2171,307.1358,101.1389,258.9783,6.2427e-05,7.06e-06,0.0,0 STARLINK-3544,1 51803U 22017AM  24007.11266926  .00000706  00000-0  62427-4 0  9993,2 51803  53.2171 307.1358 0001595 101.1389 258.9783 15.08842217104261,6917.874,95.437,540.842,538.635,0.0
51803.0,STARLINK-3544,PAYLOAD,2024-01-07 20:11:29,15.08839601,0.0001475,53.2163,303.868,103.1634,256.9523,7.2325e-05,8.63e-06,0.0,0 STARLINK-3544,1 51803U 22017AM  24007.84131219  .00000863  00000-0  72325-4 0  9991,2 51803  53.2163 303.8680 0001475 103.1634 256.9523 15.08839601104370,6917.882,95.438,540.767,538.726,0.0
51803.0,STARLINK-3544,PAYLOAD,2024-01-08 05:43:47,15.0884875,0.0001528,53.2167,302.0829,96.4974,263.6192,0.00019448,2.809e-05,0.0,0 STARLINK-3544,1 51803U 22017AM  24008.23874764  .00002809  00000-0  19448-3 0  9992,2 51803  53.2167 302.0829 0001528  96.4974 263.6192 15.08848750104439,6917.854,95.437,540.776,538.662,0.0
51803.0,STARLINK-3544,PAYLOAD,2024-01-09 00:48:26,15.08828699,0.000161,53.2176,298.5092,104.9283,255.1887,-7.769e-05,-1.524e-05,0.0,0 STARLINK-3544,1 51803U 22017AM  24009.03364107 -.00001524  00000-0 -77690-4 0  9995,2 51803  53.2176 298.5092 0001610 104.9283 255.1887 15.08828699104550,6917.915,95.438,540.894,538.666,0.0
51803.0,STARLINK-3544,PAYLOAD,2024-01-09 21:28:27,15.08842022,0.0001827,53.2186,294.6445,117.3915,242.7263,8.5881e-05,1.079e-05,0.0,0 STARLINK-3544,1 51803U 22017AM  24009.89475792  .00001079  00000-0  85881-4 0  9996,2 51803  53.2186 294.6445 0001827 117.3915 242.7263 15.08842022104680,6917.874,95.437,541.003,538.475,0.0
51803.0,STARLINK-3544,PAYLOAD,2024-01-10 03:49:59,15.08860963,0.0001499,53.2167,293.46,107.1475,252.9681,0.00074619,0.00011614,0.0,0 STARLINK-3544,1 51803U 22017AM  24010.15971433  .00011614  00000-0  74619-3 0  9992,2 51803  53.2167 293.4600 0001499 107.1475 252.9681 15.08860963104728,6917.816,95.436,540.718,538.644,0.0
